satname,norad_id,inclination_deg,eccentricity,mean_motion_rev_per_day,perigee_km,apogee_km,l1,l2
STARLINK-1008,44714,53.1527,0.0002451,15.46833667,424.32783486129574,427.66322062639665,1 44714U 19074B   26139.90887055  .00012327  00000+0  24976-3 0  9999,2 44714  53.1527 203.7505 0002451  30.0554 330.0594 15.46833667359837
STARLINK-1012,44718,53.1572,0.00022,15.47040007,423.89372708238534,426.8872791837639,1 44718U 19074F   26139.84516592  .00012934  00000+0  25979-3 0  9999,2 44718  53.1572 204.3634 0002200  23.6156 336.4953 15.47040007359815
STARLINK-1017,44723,53.0452,0.0004835,15.29929209,472.7097350793756,479.3377084973454,1 44723U 19074L   26139.87336961  .00029973  00000+0  10282-2 0  9999,2 44723  53.0452 201.4649 0004835 335.6869  24.3902 15.29929209359844
STARLINK-1020,44725,53.1576,0.0002982,15.51700371,409.7364887961676,413.78598410438735,1 44725U 19074N   26139.60727541  .00067163  00000+0  11073-2 0  9992,2 44725  53.1576 230.2494 0002982   7.2176 352.8876 15.51700371359410
STARLINK-1036,44741,53.0416,0.000248,15.6708843,365.56628331794764,368.91198988170163,1 44741U 19074AE  26139.41475895  .00030491  00000+0  28437-3 0  9998,2 44741  53.0416 202.6650 0002480 302.4655  57.6120 15.67088430359786
STARLINK-1039,44744,53.059,0.0002411,15.27260507,482.3514771275177,485.6604024530852,1 44744U 19074AH  26139.67279268  .00033119  00000+0  12309-2 0  9995,2 44744  53.0590 247.3932 0002411 356.0092   4.0886 15.27260507359187
STARLINK-1042,44747,53.0415,0.0003458,15.53136446,405.2286673762619,409.9216659107133,1 44747U 19074AL  26139.63370557  .00016646  00000+0  26785-3 0  9997,2 44747  53.0415 113.4656 0003458  47.7445 312.3857 15.53136446361088
STARLINK-1043,44748,53.048,9.64e-05,15.61006729,384.09588217055716,385.399766364676,1 44748U 19074AM  26140.00002315  .00057002  00000+0  66760-3 0  9993,2 44748  53.0480 209.1511 0000964  82.8333 215.7088 15.61006729  5850
STARLINK-1046,44751,53.0482,0.0006278,15.52664097,404.69038852752965,413.21225662535653,1 44751U 19074AQ  26139.43293569  .00054749  00000+0  87417-3 0  9992,2 44751  53.0482 232.3911 0006278   4.7101 355.3966 15.52664097359371
STARLINK-1047,44752,53.0677,0.000364,15.34009736,461.37294481120716,466.35392112640966,1 44752U 19074AR  26139.80187017  .00004153  00000+0  13562-3 0  9998,2 44752  53.0677 173.3968 0003640  78.4789 281.6621 15.34009736360255
STARLINK-1048,44753,53.0428,0.0006927,15.65360668,367.5257230856387,376.87764229663935,1 44753U 19074AS  26139.83215395  .00037855  00000+0  37630-3 0  9990,2 44753  53.0428 182.3574 0006927 354.4216   5.6720 15.65360668360102
STARLINK-1063,44768,53.1564,0.0001058,15.4679006,425.40351748559715,426.84329898798114,1 44768U 19074BH  26139.85665935  .00027831  00000+0  55292-3 0  9994,2 44768  53.1564 245.0133 0001058  31.4989 328.6083 15.46790060359264
STARLINK-1067,44771,53.0423,0.0006146,15.71721063,349.84043719877263,358.1155529507196,1 44771U 19074BL  26139.52969909  .00050019  00000+0  38147-3 0  9994,2 44771  53.0423 216.6630 0006146 318.5043  41.5507 15.71721063359605
STARLINK-1068,44772,53.0425,0.0002249,15.7255215,350.09233785424294,353.11937619133187,1 44772U 19074BM  26139.92473850  .00051463  00000+0  37906-3 0  9990,2 44772  53.0425 188.4590 0002249  57.4090 302.7145 15.72552150360028
STARLINK-1114,44927,53.0429,7.16e-05,15.6236896,380.3322678911991,381.30014999071955,1 44927U 20001P   26139.94902032  .00073679  00000+0  81532-3 0  9992,2 44927  53.0429 344.0108 0000716  40.9260 319.1807 15.62368960351190
STARLINK-1123,44930,53.1463,0.0002532,15.5495295,400.5725973970866,404.00620532673474,1 44930U 20001S   26139.96063341  .00056606  00000+0  83192-3 0  9994,2 44930  53.1463   9.6877 0002532 200.4242 159.6669 15.54952950350844
STARLINK-1094,44941,53.1547,0.0001965,15.51683382,410.4765722357806,413.14502171999266,1 44941U 20001AD  26139.94319208  .00057973  00000+0  95861-3 0  9994,2 44941  53.1547 344.3174 0001965 241.9207 118.1604 15.51683382351205
STARLINK-1122,44949,53.1576,0.0001721,15.51442899,411.3437633060812,413.6811048412892,1 44949U 20001AM  26139.88590091  .00065256  00000+0  10864-2 0  9998,2 44949  53.1576 345.1508 0001721 228.4288 131.6575 15.51442899351184
STARLINK-1080,44961,53.046,0.0002389,15.58484209,390.4259415329898,393.66073369830247,1 44961U 20001AZ  26139.45969803  .00021590  00000+0  28354-3 0  9993,2 44961  53.0460 306.9373 0002389 304.2922  55.7863 15.58484209351671
STARLINK-1090,44968,53.1509,8.65e-05,15.47924038,422.21161182490323,423.3881739073704,1 44968U 20001BG  26139.95760275  .00044769  00000+0  84842-3 0  9994,2 44968  53.1509 332.0540 0000865 219.3766 140.7179 15.47924038351377
STARLINK-1132,45044,53.1515,5.83e-05,15.52859601,407.98599662165,408.7773046963166,1 45044U 20006A   26139.73638465  .00069822  00000+0  11037-2 0  9998,2 45044  53.1515 274.8350 0000583 324.6559  35.4413 15.52859601347936
STARLINK-1131,45047,53.159,7.58e-05,15.49804895,416.78123379458157,417.81142148705203,1 45047U 20006D   26139.84058057  .00073355  00000+0  12919-2 0  9992,2 45047  53.1590 306.7226 0000758 264.3698  95.7225 15.49804895347499
STARLINK-1134,45048,53.0268,0.0006041,15.53764359,401.6487211762178,409.8450096624174,1 45048U 20006E   26139.75321911  .00082068  00000+0  12514-2 0  9997,2 45048  53.0268 257.9486 0006041  12.0897 348.0256 15.53764359348153
STARLINK-1156,45054,53.1585,0.0001824,15.33279339,464.78773226406247,467.28448661438597,1 45054U 20006L   26139.84306770  .00043717  00000+0  13442-2 0  9999,2 45054  53.1585 310.0328 0001824 271.8004  88.2789 15.33279339347440
STARLINK-1166,45060,53.0472,0.0001994,15.56252156,397.16394270316323,399.86647160337634,1 45060U 20006S   26139.97444773  .00076368  00000+0  10649-2 0  9990,2 45060  53.0472 290.1138 0001994 295.9031  64.1774 15.56252156347724
STARLINK-1169,45061,53.1569,0.0003113,15.36365179,454.7408037225614,458.9962781723543,1 45061U 20006T   26139.85111436  .00047343  00000+0  13181-2 0  9990,2 45061  53.1569 309.0065 0003113 226.7020 133.3724 15.36365179347460
STARLINK-1171,45062,53.0416,0.0001525,15.71719408,352.9560727025546,355.0093692174469,1 45062U 20006U   26139.59809252  .00050438  00000+0  38496-3 0  9998,2 45062  53.0416 259.9867 0001525 250.8997 109.1855 15.71719408348116
STARLINK-1133,45064,53.159,0.0002263,15.33354477,464.263734711466,467.361306264439,1 45064U 20006W   26139.42281897  .00037614  00000+0  11563-2 0  9997,2 45064  53.1590 288.7725 0002263 296.2035  63.8735 15.33354477347719
STARLINK-1167,45071,53.1572,0.0002089,15.35485681,458.04989112599105,460.90664678536086,1 45071U 20006AD  26139.45465068  .00031576  00000+0  90980-3 0  9994,2 45071  53.1572 288.0078 0002089 223.0138 137.0702 15.35485681347722
STARLINK-1168,45072,53.1497,0.0001214,15.33487656,464.5854558089468,466.247070541247,1 45072U 20006AE  26139.73002382  .00048986  00000+0  14939-2 0  9994,2 45072  53.1497 287.5485 0001214  50.8536 309.2574 15.33487656347757
STARLINK-1172,45074,53.1551,0.0002306,15.36592012,454.6198677422508,457.7718620595433,1 45074U 20006AG  26139.81523019  .00045883  00000+0  12689-2 0  9993,2 45074  53.1551 285.7973 0002306 238.8853 121.1925 15.36592012347785
STARLINK-1153,45080,53.1582,0.0003039,15.35634555,456.958524097814,461.1141580545209,1 45080U 20006AN  26139.76369856  .00054690  00000+0  15556-2 0  9993,2 45080  53.1582 286.4784 0003039 246.9449 113.1234 15.35634555347770
STARLINK-1151,45081,53.0494,0.0002475,15.74843815,343.4116655669495,346.73965583399513,1 45081U 20006AP  26139.35347243  .00053315  00000+0  35575-3 0  9992,2 45081  53.0494 250.3629 0002475 287.8887  72.1862 15.74843815348229
STARLINK-1185,45087,53.16,0.0003024,15.43782433,432.89772299411106,437.01828285188003,1 45087U 20006AV  26139.61912113  .00056582  00000+0  12311-2 0  9992,2 45087  53.1600 268.4130 0003024 312.0761  47.9988 15.43782433348015
STARLINK-1183,45088,53.1584,0.0002149,15.3327386,464.5815977674738,467.5232303776429,1 45088U 20006AW  26139.90266347  .00031728  00000+0  98036-3 0  9990,2 45088  53.1584 271.3339 0002149 317.3278  42.7557 15.33273860347998
STARLINK-1152,45096,53.0341,0.0003181,15.46566724,424.61380684336837,428.9430940529446,1 45096U 20006BE  26139.53573264  .00056162  00000+0  11114-2 0  9997,2 45096  53.0341 230.1382 0003181  13.5927 346.5164 15.46566724348528
STARLINK-1184,45098,53.0523,0.000309,15.13423328,523.6360493498951,527.9026634781585,1 45098U 20006BG  26139.66041781  .00021972  00000+0  12286-2 0  9999,2 45098  53.0523 284.0580 0003090 354.6250   5.4708 15.13423328347774
STARLINK-1193,45100,53.0473,0.000357,15.65937217,368.1354020858789,372.9539608064315,1 45100U 20006BJ  26139.57307641  .00036760  00000+0  35761-3 0  9998,2 45100  53.0473 244.4497 0003570 258.0935 101.9679 15.65937217348324
STARLINK-1143,45179,53.0381,0.0002001,15.82182052,322.93001535006715,325.61231909859,1 45179U 20012B   26140.00002315  .00169882  00000+0  79745-3 0  9993,2 45179  53.0381 336.1208 0002001 291.8714 336.6081 15.82182052  6003
STARLINK-1202,45183,53.1568,0.0002958,15.33047459,464.70152184661674,468.7509429348993,1 45183U 20012F   26139.51908884  .00031527  00000+0  98118-3 0  9997,2 45183  53.1568  69.8534 0002958  97.5862 262.5476 15.33047459345800
STARLINK-1216,45185,53.1564,0.0003019,15.33328494,463.8236246118977,467.9560480156633,1 45185U 20012H   26139.95804451  .00023515  00000+0  72905-3 0  9996,2 45185  53.1564  67.6990 0003019  96.5337 263.6009 15.33328494345811
STARLINK-1225,45187,53.1567,0.0002679,15.33281991,464.1946656817481,467.8617694053082,1 45187U 20012K   26139.95617180  .00034106  00000+0  10524-2 0  9995,2 45187  53.1567  68.1656 0002679  96.7867 263.3440 15.33281991345852
STARLINK-1230,45189,53.1566,0.0003088,15.33246056,464.0216446132472,468.2486670967028,1 45189U 20012M   26139.96624633  .00040325  00000+0  12425-2 0  9991,2 45189  53.1566  68.1799 0003088 100.3433 259.7917 15.33246056343081
